{
  "type": "FeatureCollection",
  "features": [
    {
      "type": "Feature",
      "properties": {
        "norad_id": 34079,
        "name": "IRIDIUM 33 DEB",
        "group": "iridium-33-debris",
        "lat": 24.031911025025323,
        "lon": -172.3354478767655,
        "alt_km": 621.2378422239308,
        "timestamp": "2025-12-11T08:58:27.510093+00:00",
        "meta_object_name": "IRIDIUM 33 DEB",
        "meta_object_id": "1997-051CN",
        "meta_epoch": "2025-12-11T02:02:18.974976",
        "meta_mean_motion": 14.83452608,
        "meta_eccentricity": 0.0005837,
        "meta_inclination": 86.3778,
        "meta_ra_of_asc_node": 9.4145,
        "meta_arg_of_pericenter": 13.5557,
        "meta_mean_anomaly": 39.91,
        "meta_ephemeris_type": 0,
        "meta_classification_type": "U",
        "meta_norad_cat_id": 34079,
        "meta_element_set_no": 999,
        "meta_rev_at_epoch": 88953,
        "meta_bstar": 0.0024971,
        "meta_mean_motion_dot": 0.00020578,
        "meta_mean_motion_ddot": 0,
        "tle_line1": "1 34079U 97051CN  25345.08494184  .00020578  00000+0  24971-2 0  9998",
        "tle_line2": "2 34079  86.3778   9.4145 0005837  13.5557  39.9100 14.83452608889532"
      },
      "geometry": {
        "type": "Point",
        "coordinates": [
          -172.3354478767655,
          24.031911025025323
        ]
      }
    },
    {
      "type": "Feature",
      "properties": {
        "norad_id": 34088,
        "name": "IRIDIUM 33 DEB",
        "group": "iridium-33-debris",
        "lat": -28.6666980631553,
        "lon": -146.6676032078918,
        "alt_km": 596.5383981437326,
        "timestamp": "2025-12-11T08:58:27.510119+00:00",
        "meta_object_name": "IRIDIUM 33 DEB",
        "meta_object_id": "1997-051CX",
        "meta_epoch": "2025-12-11T03:26:50.826048",
        "meta_mean_motion": 14.91253391,
        "meta_eccentricity": 0.0005523,
        "meta_inclination": 86.3845,
        "meta_ra_of_asc_node": 31.4571,
        "meta_arg_of_pericenter": 182.298,
        "meta_mean_anomaly": 230.8134,
        "meta_ephemeris_type": 0,
        "meta_classification_type": "U",
        "meta_norad_cat_id": 34088,
        "meta_element_set_no": 999,
        "meta_rev_at_epoch": 88718,
        "meta_bstar": 0.0038535,
        "meta_mean_motion_dot": 0.00038525,
        "meta_mean_motion_ddot": 0,
        "tle_line1": "1 34088U 97051CX  25345.14364382  .00038525  00000+0  38535-2 0  9993",
        "tle_line2": "2 34088  86.3845  31.4571 0005523 182.2980 230.8134 14.91253391887186"
      },
      "geometry": {
        "type": "Point",
        "coordinates": [
          -146.6676032078918,
          -28.6666980631553
        ]
      }
    },
    {
      "type": "Feature",
      "properties": {
        "norad_id": 34091,
        "name": "IRIDIUM 33 DEB",
        "group": "iridium-33-debris",
        "lat": 80.60268828153977,
        "lon": 90.20745724478596,
        "alt_km": 635.5177999960242,
        "timestamp": "2025-12-11T08:58:27.510131+00:00",
        "meta_object_name": "IRIDIUM 33 DEB",
        "meta_object_id": "1997-051DA",
        "meta_epoch": "2025-12-11T05:21:58.568256",
        "meta_mean_motion": 14.81622216,
        "meta_eccentricity": 0.0033436,
        "meta_inclination": 86.3407,
        "meta_ra_of_asc_node": 67.5278,
        "meta_arg_of_pericenter": 298.8386,
        "meta_mean_anomaly": 60.948,
        "meta_ephemeris_type": 0,
        "meta_classification_type": "U",
        "meta_norad_cat_id": 34091,
        "meta_element_set_no": 999,
        "meta_rev_at_epoch": 87844,
        "meta_bstar": 0.0076018,
        "meta_mean_motion_dot": 0.00060805,
        "meta_mean_motion_ddot": 0,
        "tle_line1": "1 34091U 97051DA  25345.22359454  .00060805  00000+0  76018-2 0  9994",
        "tle_line2": "2 34091  86.3407  67.5278 0033436 298.8386  60.9480 14.81622216878446"
      },
      "geometry": {
        "type": "Point",
        "coordinates": [
          90.20745724478596,
          80.60268828153977
        ]
      }
    },
    {
      "type": "Feature",
      "properties": {
        "norad_id": 34097,
        "name": "IRIDIUM 33 DEB",
        "group": "iridium-33-debris",
        "lat": -19.981360061479897,
        "lon": -176.60501726396456,
        "alt_km": 838.7446511917278,
        "timestamp": "2025-12-11T08:58:27.510142+00:00",
        "meta_object_name": "IRIDIUM 33 DEB",
        "meta_object_id": "1997-051DG",
        "meta_epoch": "2025-12-11T01:20:58.856064",
        "meta_mean_motion": 14.3475402,
        "meta_eccentricity": 0.0082781,
        "meta_inclination": 86.2006,
        "meta_ra_of_asc_node": 2.1506,
        "meta_arg_of_pericenter": 7.6829,
        "meta_mean_anomaly": 352.5612,
        "meta_ephemeris_type": 0,
        "meta_classification_type": "U",
        "meta_norad_cat_id": 34097,
        "meta_element_set_no": 999,
        "meta_rev_at_epoch": 87095,
        "meta_bstar": 0.0020786,
        "meta_mean_motion_dot": 6.141e-05,
        "meta_mean_motion_ddot": 0,
        "tle_line1": "1 34097U 97051DG  25345.05623676  .00006141  00000+0  20786-2 0  9995",
        "tle_line2": "2 34097  86.2006   2.1506 0082781   7.6829 352.5612 14.34754020870952"
      },
      "geometry": {
        "type": "Point",
        "coordinates": [
          -176.60501726396456,
          -19.981360061479897
        ]
      }
    },
    {
      "type": "Feature",
      "properties": {
        "norad_id": 34145,
        "name": "IRIDIUM 33 DEB",
        "group": "iridium-33-debris",
        "lat": 71.82103599198595,
        "lon": -15.226202616785987,
        "alt_km": 708.3879322164557,
        "timestamp": "2025-12-11T08:58:27.510153+00:00",
        "meta_object_name": "IRIDIUM 33 DEB",
        "meta_object_id": "1997-051DY",
        "meta_epoch": "2025-12-10T04:20:07.855008",
        "meta_mean_motion": 14.42258512,
        "meta_eccentricity": 0.0055658,
        "meta_inclination": 86.2123,
        "meta_ra_of_asc_node": 333.6661,
        "meta_arg_of_pericenter": 101.9259,
        "meta_mean_anomaly": 258.8189,
        "meta_ephemeris_type": 0,
        "meta_classification_type": "U",
        "meta_norad_cat_id": 34145,
        "meta_element_set_no": 999,
        "meta_rev_at_epoch": 87601,
        "meta_bstar": 0.0015884,
        "meta_mean_motion_dot": 5.356e-05,
        "meta_mean_motion_ddot": 0,
        "tle_line1": "1 34145U 97051DY  25344.18064647  .00005356  00000+0  15884-2 0  9999",
        "tle_line2": "2 34145  86.2123 333.6661 0055658 101.9259 258.8189 14.42258512876012"
      },
      "geometry": {
        "type": "Point",
        "coordinates": [
          -15.226202616785987,
          71.82103599198595
        ]
      }
    },
    {
      "type": "Feature",
      "properties": {
        "norad_id": 34146,
        "name": "IRIDIUM 33 DEB",
        "group": "iridium-33-debris",
        "lat": 36.85076567726595,
        "lon": -6.80418184813287,
        "alt_km": 744.0521990070547,
        "timestamp": "2025-12-11T08:58:27.510163+00:00",
        "meta_object_name": "IRIDIUM 33 DEB",
        "meta_object_id": "1997-051DZ",
        "meta_epoch": "2025-12-11T00:47:22.560000",
        "meta_mean_motion": 14.49028773,
        "meta_eccentricity": 0.0025351,
        "meta_inclination": 86.2839,
        "meta_ra_of_asc_node": 350.5544,
        "meta_arg_of_pericenter": 227.6894,
        "meta_mean_anomaly": 191.4484,
        "meta_ephemeris_type": 0,
        "meta_classification_type": "U",
        "meta_norad_cat_id": 34146,
        "meta_element_set_no": 999,
        "meta_rev_at_epoch": 88082,
        "meta_bstar": 0.001422,
        "meta_mean_motion_dot": 5.436e-05,
        "meta_mean_motion_ddot": 0,
        "tle_line1": "1 34146U 97051DZ  25345.03290000  .00005436  00000+0  14220-2 0  9991",
        "tle_line2": "2 34146  86.2839 350.5544 0025351 227.6894 191.4484 14.49028773880828"
      },
      "geometry": {
        "type": "Point",
        "coordinates": [
          -6.80418184813287,
          36.85076567726595
        ]
      }
    },
    {
      "type": "Feature",
      "properties": {
        "norad_id": 34159,
        "name": "IRIDIUM 33 DEB",
        "group": "iridium-33-debris",
        "lat": 16.456966893560935,
        "lon": -132.25644100330865,
        "alt_km": 775.9327743259028,
        "timestamp": "2025-12-11T08:58:27.510174+00:00",
        "meta_object_name": "IRIDIUM 33 DEB",
        "meta_object_id": "1997-051EN",
        "meta_epoch": "2025-12-11T04:52:32.969568",
        "meta_mean_motion": 14.38486874,
        "meta_eccentricity": 0.0025994,
        "meta_inclination": 86.3509,
        "meta_ra_of_asc_node": 48.8965,
        "meta_arg_of_pericenter": 293.3015,
        "meta_mean_anomaly": 66.5448,
        "meta_ephemeris_type": 0,
        "meta_classification_type": "U",
        "meta_norad_cat_id": 34159,
        "meta_element_set_no": 999,
        "meta_rev_at_epoch": 87937,
        "meta_bstar": 0.00056854,
        "meta_mean_motion_dot": 1.761e-05,
        "meta_mean_motion_ddot": 0,
        "tle_line1": "1 34159U 97051EN  25345.20315937  .00001761  00000+0  56854-3 0  9998",
        "tle_line2": "2 34159  86.3509  48.8965 0025994 293.3015  66.5448 14.38486874879377"
      },
      "geometry": {
        "type": "Point",
        "coordinates": [
          -132.25644100330865,
          16.456966893560935
        ]
      }
    }
  ]
}